GPS BIII-2  (PRN 18)    
1 44506U 19056A   26186.83369959 -.00000069  00000+0  00000+0 0  9999
2 44506  55.6274 330.4028 0063000 197.9636 333.5527  2.00570057 50447
GPS BIII-3  (PRN 23)    
1 45854U 20041A   26184.41938360 -.00000059  00000+0  00000+0 0  9991
2 45854  56.6609  28.3098 0065537 210.5872 315.2472  2.00558496 44361
GPS BIII-4  (PRN 14)    
1 46826U 20078A   26187.24323141  .00000089  00000+0  00000+0 0  9992
2 46826  53.9784 210.0060 0074273 207.5933 174.2050  2.00564971 41890
GPS BIII-5  (PRN 11)    
1 48859U 21054A   26186.97152108 -.00000070  00000+0  00000+0 0  9998
2 48859  55.1649 331.7056 0026141 228.4455 143.5040  2.00567861 37131
GPS BIII-6  (PRN 28)    
1 55268U 23009A   26187.14590086  .00000077  00000+0  00000+0 0  9999
2 55268  55.1244 147.7740 0006208 319.3269 217.0809  2.00570238 25627
COSMOS 2534 (758)       
1 44299U 19030A   26186.35502329  .00000103  00000+0  00000+0 0  9995
2 44299  64.3703 192.0046 0013524 275.0298 121.8655  2.13102289 55313
COSMOS 2544 (759)       
1 44850U 19088A   26183.51498774 -.00000008  00000+0  00000+0 0  9999
2 44850  65.5733  73.2191 0012628 256.5667 103.3590  2.13103168 51047
COSMOS 2545 (760)       
1 45358U 20018A   26186.52549398 -.00000044  00000+0  00000+0 0  9991
2 45358  64.3433 311.7745 0009062 230.0279 129.9063  2.13102802 49055
COSMOS 2547 (705K)      
1 46805U 20075A   26186.71515358  .00000107  00000+0  00000+0 0  9991
2 46805  64.6011 191.8571 0009439 239.8715 120.0623  2.13100185 44301
COSMOS 2557 (706K)      
1 52984U 22075A   26186.87934741 -.00000046  00000+0  00000+0 0  9999
2 52984  64.2867 313.8270 0010577 272.7453  87.1460  2.13102489 31119
COSMOS 2559 (707K)      
1 54031U 22130A   26183.88345398 -.00000049  00000+0  00000+0 0  9991
2 54031  64.2611 314.0154 0012880 179.7670 180.2387  2.13101779 29022
COSMOS 2564 (761)       
1 54377U 22161A   26186.54219356  .00000105  00000+0  00000+0 0  9990
2 54377  64.7434 192.1023 0012270 225.0989 134.8292  2.13102016 28028
COSMOS 2569 (703K)      
1 57517U 23114A   26187.02377637 -.00000015  00000+0  00000+0 0  9990
2 57517  65.3126  71.9855 0009994 296.4225  63.5407  2.13103762 22662
GSAT0223 (GALILEO 27)   
1 49809U 21116A   26184.42092904 -.00000075  00000+0  00000+0 0  9993
2 49809  57.1558 341.2375 0001787 186.7549 176.0990  1.70476367 28464
GSAT0224 (GALILEO 28)   
1 49810U 21116B   26184.81984321 -.00000074  00000+0  00000+0 0  9990
2 49810  57.1559 341.2257 0001573 171.0762 189.2294  1.70476408 28495
BEIDOU-3 IGSO-2 (C39)   
1 44337U 19035A   26187.31342965 -.00000077  00000+0  00000+0 0  9999
2 44337  55.2501 158.6948 0039670 216.4750 140.9502  1.00260728 25859
BEIDOU-3 M24 (C46)      
1 44542U 19061A   26184.88799988  .00000088  00000+0  00000+0 0  9997
2 44542  54.3971 182.1643 0008565 358.8529   1.1460  1.86229350 46108
BEIDOU-3 M23 (C45)      
1 44543U 19061B   26187.27402068  .00000112  00000+0  00000+0 0  9992
2 44543  54.3960 182.0526 0005864 339.2587  91.9188  1.86227560 46152
BEIDOU-3 M22 (C44)      
1 44793U 19078A   26186.33900275 -.00000058  00000+0  00000+0 0  9996
2 44793  53.9186 299.1896 0005914  49.8831 310.1966  1.86227646 44980
BEIDOU-3 M21 (C43)      
1 44794U 19078B   26186.47887781 -.00000058  00000+0  00000+0 0  9998
2 44794  53.8912 299.1453 0003864  48.4464 311.6147  1.86228113 44993
BEIDOU-3 M19 (C41)      
1 44864U 19090A   26186.44468992 -.00000038  00000+0  00000+0 0  9994
2 44864  56.5742  62.1879 0017143 297.2857 237.3269  1.86231783 44577
BEIDOU-3 M20 (C42)      
1 44865U 19090B   26186.91754366 -.00000039  00000+0  00000+0 0  9991
2 44865  56.5761  62.2071 0015031 311.9992 269.2229  1.86231646 44569
BEIDOU-3 G2 (C60)       
1 45344U 20017A   26187.16288762 -.00000128  00000+0  00000+0 0  9994
2 45344   2.9003  47.6059 0002496  50.3813 324.8866  1.00270981 23457
BEIDOU-3 G3 (C61)       
1 45807U 20040A   26187.31143631 -.00000340  00000+0  00000+0 0  9992
2 45807   2.4913  67.4781 0002216 334.1967 105.2849  1.00269354 22263
BEIDOU-3 G4 (C62)       
1 56564U 23066A   26187.31732966 -.00000268  00000+0  00000+0 0  9999
2 56564   0.4680 336.2681 0005056 178.9361  23.3037  1.00266978 11588
BEIDOU-3 M28 (C50)      
1 58654U 23207A   26186.01893222 -.00000039  00000+0  00000+0 0  9993
2 58654  55.7683  61.7017 0002706 358.4998   1.5667  1.86229766 17175
BEIDOU-3 M26 (C48)      
1 58655U 23207B   26186.35338463 -.00000040  00000+0  00000+0 0  9994
2 58655  55.7709  61.6769 0002358 323.5408  36.5098  1.86229736 17162
EUTELSAT 5 WEST B (EGN*)
1 44624U 19067A   26187.28855671 -.00000028  00000+0  00000+0 0  9998
2 44624   0.0663 337.8463 0003238 128.2207 277.0836  1.00271410 24622
GALAXY 30 (WAAS/PRN 135)
1 46114U 20056C   26187.05101847  .00000051  00000+0  00000+0 0  9993
2 46114   0.0181  36.0032 0001980  70.3190  71.0988  1.00273430 21488
QZS-1R (QZSS/PRN 196)   
1 49336U 21096A   26186.60108073 -.00000258  00000+0  00000+0 0  9995
2 49336  37.4964  79.3119 0755511 272.0883 281.1819  1.00249302 17193
NVS-01 (IRNSS-1J)       
1 56759U 23076A   26187.03013171 -.00000321  00000+0  00000+0 0  9995
2 56759   2.1243 243.5096 0003155   7.6434 173.2786  1.00269803 11301
